#dP2020 10  5  0  0  0.00000000      96 __u+U ITR00 FIT  IAC
## 2126  86400.00000000   900.00000000 59127 0.0000000000000
+  115   C06C07C08C09C10C11C12C13C14C16C19C20C21C22C23C24C25
+        C26C27C28C29C30C32C33C34C35C36C37C38C39C40C43C44C45
+        C46E01E02E03E04E05E07E08E09E11E12E13E14E15E18E19E21
+        E24E25E26E27E30E31E33E36G01G02G03G04G05G06G07G08G09
+        G10G11G12G13G15G16G17G18G19G20G21G22G24G25G26G27G28
+        G29G30G31G32J01J02J03R01R02R03R04R05R07R08R09R11R12
+        R13R14R15R16R17R18R19R20R21R22R23R24R26  0  0  0  0
++         8  8  7  8  9  7  9  9  9  8  8  7  8  6  8  8  7
++         8  7  9  7  7  6  7  6  7  7  7 10 10 10  9  9  8
++         5  6  6  6  5  6  7  6  6  7  6  6  6  5  6  5  7
++         6  5  5  6  5  5  5  6  5  5  5  6  7  5  5  5  6
++         5  8  6  4  5  6  6  6  5  7  7  5  5  5  5  4  6
++         5  5  5  5  8 10  8  7  5  6  7  7  6  7  7  7  6
++         7  7  5  7  7  6  9  8  6  7  8  7  6  0  0  0  0
%c M  cc GPS ccc cccc cccc cccc cccc ccccc ccccc ccccc ccccc
%c cc cc ccc ccc cccc cccc cccc cccc ccccc ccccc ccccc ccccc
%f  0.0000000  0.000000000  0.00000000000  0.000000000000000
%f  0.0000000  0.000000000  0.00000000000  0.000000000000000
%i    0    0    0    0      0      0      0      0         0
%i    0    0    0    0      0      0      0      0         0
/* INFORMATION & ANALYSIS CENTER (IAC)      ULTRA-RAPID DATA
/* S/V CLOCKS ARE ALIGNED TO GNSS TIME                      
/* G:C1WC2W R:C1PC2P E:C1XC5X C:C2IC6I J:C1CC2S             
/* PCV:IGS14_2118 OL/AL:FES2004  NONE     YN ORB:CoN CLK:CoN
*  2020 10 05  1 30  0.00000000
PC06 -25606.253599  30334.839863 -14430.322669     30.572016
PC07 -10940.165373  34690.865988 -20630.867520    -70.945198
PC08 -11702.404716  18243.243597  36231.346802   -579.567556
PC09 -12320.056152  30236.964678 -26641.004341    852.631780
PC10     -4.365948  40934.361298  -8865.177069   -171.322880
PC11  16070.194226   8422.569235  21280.990521   -663.832022
PC12  -3262.242948  17042.180312  21881.103184    540.578570
PC13   3318.353253  25064.694966  33877.781656    679.999875
PC14  10890.007025  18071.934276 -18217.079402     -7.609368
PC16 -22261.532773  31089.787963 -17888.252802   -593.033976
PC19 -14679.781807  -8266.238150  22265.351437    570.256065
PC20  -6030.589932 -24344.742599  12272.883709   -853.649532
PC21  -6644.414533  26532.800224   5486.753864   -690.147847
PC22 -15050.170174  12988.761311  19567.025207   -770.220331
PC23  19379.816072  -3186.284875  19838.315800   -882.079899
PC24  14451.451650  20963.469132 -11444.806941   -722.391928
PC25  24506.967810  11718.726223   6434.968680   -779.951615
PC26  -2264.311706  17345.663650 -21750.283909    854.993854
PC27  13277.149756 -18037.128803 -16656.630687    410.257444
PC28  25598.023364 -11121.372339   -499.818862   -162.153709
PC29 -22927.380777  -1416.092357 -15847.273495    292.983264
PC30  -6878.723098 -14307.696629 -22952.176730    385.170482
PC32   6451.411477 -26593.766970  -5484.989706   -904.731126
PC33  14725.608932   8261.363028 -22217.450603   -805.877099
PC34   7434.657973  14088.139843  22906.579203   -839.461298
PC35 -25274.271198  11861.134056    275.386656   -622.805607
PC36 -24175.662693 -12496.341418  -6148.026379   -891.366986
PC37   3456.051802 -16884.362784  21971.836356   -906.199050
PC38  -8748.601685  22134.484756  34802.698052    104.312378
PC39 -18378.900109  32619.582503 -19512.677807     23.377348
PC40  -4434.198537  40234.566363 -11444.568270     87.728242
PC43  22741.901549   1904.337279  16046.210629   -402.281514
PC44 -12871.381216  18531.924394  16433.373480 999999.999999
PC45 -19272.277854   3182.545891 -19909.048076 999999.999999
PC46 -15039.038295 -20786.887492  10953.587689 999999.999999
PE01  17956.540655    293.682695  23539.423882   -954.684037
PE02 -17907.840546   -175.083785 -23557.340497    166.524705
PE03 -21363.041325  10772.256595  17413.130773   -350.183737
PE04  16184.064361 -24776.486461   -697.202188   -620.604126
PE05 -14086.370340  -9735.690299  24141.829188   -340.547420
PE07  -1346.246468  24380.068986 -16723.370861   -444.585274
PE08 -15878.260597  24968.112520    440.470795   6111.170492
PE09   1199.250424 -24297.952994  16873.839672   5909.303246
PE11  -6160.884196 -16023.853332 -24122.109653   5993.649189
PE12  16589.549870 -13125.498025 -20703.222074   5572.546890
PE13   5896.307516  15952.017651  24230.271169    404.121762
PE14  19235.119505 -21624.892082  -4772.899140  -1179.150503
PE15 -16374.373609  13188.638750  20836.594727    849.846192
PE18 -24051.923461  11760.706453  -7624.958004  -1288.115641
PE19  21070.683540  -8647.467561 -18905.774652     95.067570
PE21  19170.978882  19111.540630  11980.238671   -624.994338
PE24  -8739.913249 -27325.308776   7250.396392   -512.381748
PE25 -19121.904569 -19249.165049 -11819.580747   -517.676301
PE26  25004.876338   9280.745931  12855.070296   2649.934036
PE27   9226.178212  27283.390889  -6827.535390    120.183383
PE30  -6653.564882  18933.280500 -21760.165002   3531.336001
PE31   6102.280383 -19379.262173  21543.503787   -474.601248
PE33  29022.574080  -2664.949808  -5184.942488   -462.638329
PE36 -24683.298922  -9345.795698 -13390.558709    498.716684
PG01 -18802.350133 -14329.755513 -12670.437725     34.347124
PG02  -2133.410184  15397.850637  22184.896842   -525.381811
PG03 -12804.452697 -20690.319185  10688.558082   -317.519415
PG04 -11174.223708 -10394.331610  21744.449598   -141.935704
PG05   1101.836559  25069.661299   8257.017182    -22.643379
PG06 -17539.206993   7823.216800  18415.773766   -330.955068
PG07 -26032.468365  -5825.293395  -2506.272854   -386.687744
PG08  -1782.558265 -17473.891741 -19829.065176    -50.334539
PG09 -19431.685867   1362.391679  18003.516627   -295.649437
PG10  13308.918996  -7858.327890 -21482.267645   -471.641901
PG11 -10024.070687 -14137.915179 -20528.345608   -145.855447
PG12  10214.845918  22803.008812   8989.609669     58.369671
PG13  -8047.579120  19697.925029 -15954.276831     51.623399
PG15   5004.402069  17209.041224 -19837.368257   -199.143298
PG16    449.889151 -25439.904069   6527.347977   -218.058295
PG17 -21343.518457  15253.814483  -3574.780359    335.312004
PG18  25785.592129   4907.576304  -4244.384855    301.793417
PG19 -19627.770982  17605.985873   2575.396623    -96.044879
PG20  17481.824442   4642.686057 -19602.067832    526.510292
PG21   -940.415470 -15360.891340 -20957.564288     54.338868
PG22 -10842.523267 -24174.735119   3006.913772   -747.094913
PG24  16562.074035  14863.747463 -14987.053371    -19.397634
PG25  15556.061981  12738.184656  17250.418750      0.425452
PG26   7574.026773 -18584.167631  17247.113328    289.968300
PG27   9161.206108 -21144.962408 -13044.346722   -411.095794
PG28 -12864.991233   9110.757198 -20823.385026    671.365469
PG29  17560.501266   2348.431543  19765.667125   -208.852758
PG30 -23668.329956   1778.286304 -12085.783509   -314.089265
PG31  16288.392079  -8982.520379  19074.729755    -72.901890
PG32  20466.791549 -16327.194104  -3849.057200    354.097450
PJ01 -29524.404235  26570.794751  19048.319464   -342.394528
PJ02 -20742.051039  20063.923047 -26279.099051     -4.656433
PJ03 -30256.376496  28832.439994  10664.927144     -1.678052
PR01   6159.059183  14217.736973 -20263.688172     68.559149
PR02  12663.316634  -8087.744649 -20561.137646    448.524505
PR03  10327.437289 -22107.070372  -7310.374363     23.210630
PR04   2216.402799 -23393.722563   9936.743193     56.850942
PR05  -7083.676425 -11530.000592  21621.436803     58.735092
PR07 -10193.236845  22404.309728   6810.802546    -40.582815
PR08  -2238.799750  23431.375722  -9807.070468    -54.969860
PR09 -16635.582896  -3954.557242 -18935.215200      0.579861
PR11  10557.398550  19711.202779 -12206.155771    -40.000037
PR12  18706.736310  16826.342870   4289.106087    169.217082
PR13  16575.113087   4202.458350  18917.716651    -44.771981
PR14   4483.091067 -11070.132402  22560.194215     56.244123
PR15  -9868.309563 -19591.354508  13047.400218    107.000685
PR16 -19156.323932 -15988.622940  -4995.882571     -6.954235
PR17  17925.776059 -10902.345579 -14535.847206    363.609949
PR18   1256.531790 -10885.944616 -23017.194594     51.648240
PR19 -15350.362598  -5777.157656 -19531.076121   -114.035675
PR20 -25096.975553   3743.464684  -2761.445944   -423.385534
PR21 -17074.865159  10995.571928  15408.995839   -156.827528
PR22   -129.580005  10631.752702  23175.855055    -76.091794
PR23  20924.161673   1992.541738  14451.487224    336.308445
PR24  25079.441888  -4270.980843   2042.072920     15.676377
PR26 -24081.743440   1596.956459  -8190.248840   -362.230775
EOF
